{
"type": "FeatureCollection",
"name": "gruppi_scout_agesci_zona_varese",
"features": [
{ "type": "Feature", "properties": { "nome": "Gallarate 1", "indirizzo": "Via Don Minzoni 3", "citta": "Gallarate", "indirizzo_completo": "Via Don Minzoni 3, 21013 Gallarate, VA, Italia", "sito_web": "https://gruppi.agesci.it/gallarate1/", "logo": "emblemi/Gallarate1.png", "tipo": "sede_gruppo_agesci" }, "geometry": { "type": "Point", "coordinates": [ 8.792207704934937, 45.658746575150204 ] } },
{ "type": "Feature", "properties": { "nome": "Lago di Varese 7", "indirizzo": "Via Trieste 31", "citta": "Buguggiate", "indirizzo_completo": "Via Trieste 31, 21020 Buguggiate, VA, Italia", "sito_web": "https://lagodivarese7.it/", "logo": "https://www.agesci.it/wp-content/themes/agesci/img/logo50---POS.png", "tipo": "sede_gruppo_agesci" }, "geometry": { "type": "Point", "coordinates": [ 8.8041395, 45.7856208 ] } },
{ "type": "Feature", "properties": { "nome": "Luino 1", "indirizzo": "Via San Pietro 59", "citta": "Luino", "indirizzo_completo": "Via San Pietro 59, 21016 Luino, VA, Italia", "sito_web": "https://www.agesciluino1.it/", "logo": "emblemi/Luino1.png", "tipo": "sede_gruppo_agesci" }, "geometry": { "type": "Point", "coordinates": [ 8.7463781, 46.002292 ] } },
{ "type": "Feature", "properties": { "nome": "Somma Lombardo 1", "indirizzo": "Via Goffredo Mameli 59", "citta": "Somma Lombardo", "indirizzo_completo": "Via Goffredo Mameli 59, 21019 Somma Lombardo, VA, Italia", "sito_web": "https://www.mariamadrepressolacroce.it/scoutsomma/", "logo": "https://www.agesci.it/wp-content/themes/agesci/img/logo50---POS.png", "tipo": "sede_gruppo_agesci" }, "geometry": { "type": "Point", "coordinates": [ 8.71093, 45.6857439 ] } },
{ "type": "Feature", "properties": { "nome": "Tradate 1", "indirizzo": "Via Alessandro Manzoni 17", "citta": "Tradate", "indirizzo_completo": "Via Alessandro Manzoni 17, 21049 Tradate, VA, Italia", "sito_web": "https://gruppi.agesci.it/tradate1/", "logo": "emblemi/Tradate1.png", "tipo": "sede_gruppo_agesci" }, "geometry": { "type": "Point", "coordinates": [ 8.903822, 45.7162781 ] } },
{ "type": "Feature", "properties": { "nome": "Varese 1", "indirizzo": "Via Aprica 1", "citta": "Varese", "indirizzo_completo": "Via Aprica 1, 21100 Varese, VA, Italia", "sito_web": "https://www.agesci-varese1.it/", "logo": "emblemi/Varese1.png", "tipo": "sede_gruppo_agesci" }, "geometry": { "type": "Point", "coordinates": [ 8.8283005, 45.8125997 ] } },
{ "type": "Feature", "properties": { "nome": "Varese 3", "indirizzo": "Via Astico 14", "citta": "Varese", "indirizzo_completo": "Via Astico 14, 21100 Varese, VA, Italia", "sito_web": "https://varese3.altervista.org/", "logo": "emblemi/Varese3.png", "tipo": "sede_gruppo_agesci" }, "geometry": { "type": "Point", "coordinates": [ 8.7945749, 45.8381923 ] } },
{ "type": "Feature", "properties": { "nome": "Varese 8", "indirizzo": "Via Giannone 11", "citta": "Varese", "indirizzo_completo": "Via Giannone 11, 21100 Varese, VA, Italia", "sito_web": "http://www.agescivarese8.altervista.org/index.html", "logo": "emblemi/Varese8.png", "tipo": "sede_gruppo_agesci" }, "geometry": { "type": "Point", "coordinates": [ 8.8419374, 45.8001722 ] } }
]
}
